0 ATLAS CENTAUR 2 DEB
1 00701U 63047G   13281.99114437  .00000402  00000-0  11100-3 0  2109
2 00701 030.0141 148.7941 0538292 244.1288 110.2846 13.74601643471077
0 ATLAS CENTAUR 2 DEB
1 00701U 63047G   13284.02456681  .00000464  00000-0  13370-3 0  2116
2 00701 030.0139 138.0869 0538230 261.1080 092.8223 13.74603317471351
0 ATLAS CENTAUR 2 DEB
1 00701U 63047G   13286.78438232  .00000460  00000-0  13350-3 0  2128
2 00701 030.0133 123.5543 0538147 284.1580 069.9808 13.74604814471739
0 ATLAS CENTAUR 2 DEB
1 00701U 63047G   13289.61701239  .00000488  00000-0  14505-3 0  2137
2 00701 030.0126 108.6383 0538041 307.8248 047.4795 13.74608441472124
0 ATLAS CENTAUR 2 DEB
1 00701U 63047G   13291.72342300  .00000479  00000-0  14333-3 0  2142
2 00701 030.0121 097.5462 0537982 325.4251 031.2439 13.74609577472415
0 ATLAS CENTAUR 2 DEB
1 00701U 63047G   13293.75725223  .00000515  00000-0  15752-3 0  2154
2 00701 030.0118 086.8364 0537977 342.4263 015.8350 13.74610747472702
0 ATLAS CENTAUR 2 DEB
1 00701U 63047G   13295.79110792  .00000506  00000-0  15581-3 0  2160
2 00701 030.0116 076.1261 0537977 359.4241 000.5694 13.74612260472986
